LINGQIAO VIDEO A        
1 40959U 15057B   24144.85117347  .00001736  00000+0  26438-3 0  9998
2 40959  97.6677 167.4575 0017092 193.9961 166.0777 14.75042222464101
LINGQIAO VIDEO B        
1 40960U 15057C   24144.88148563  .00001848  00000+0  27993-3 0  9998
2 40960  97.6688 168.6342 0017208 194.2245 165.8482 14.75190588464141
JILIN-1                 
1 40961U 15057D   24144.83760449  .00002037  00000+0  30337-3 0  9994
2 40961  97.6716 171.4129 0017358 190.6723 169.4121 14.75821457464243
FOX-1A (AO-85)          
1 40967U 15058D   24144.90075467  .00008457  00000+0  79295-3 0  9996
2 40967  64.7784  89.9746 0188603 311.4195  47.0834 14.82034473  1392
BISONSAT                
1 40968U 15058E   24144.90495677  .00010429  00000+0  93914-3 0  9992
2 40968  64.7788  82.9600 0183504 310.4062  48.1155 14.83984503  4217
ELEKTRO-L 2             
1 41105U 15074A   24144.60484910 -.00000096  00000+0  00000+0 0  9999
2 41105   4.7799  79.7488 0000351 227.3076 137.9216  1.00272774 30943
TELEOS-1                
1 41169U 15077D   24143.77064260  .00025410  00000+0  81487-3 0  9999
2 41169  14.9823   4.0920 0006367 245.6126 114.3533 15.30029787466955
VELOX-II                
1 41171U 15077F   24141.59238760  .00191297  00000+0  18349-2 0  9991
2 41171  14.9883 273.0016 0004669  59.9026 300.1764 15.64598621467504
DAMPE                   
1 41173U 15078A   24144.88653977  .00002568  00000+0  99364-4 0  9990
2 41173  97.4290 138.5217 0011631 222.3106 137.7237 15.27073871469273
ORBCOMM FM114           
1 41179U 15081A   24144.63129064  .00002011  00000+0  48314-3 0  9999
2 41179  47.0024 324.6715 0001446 330.1911  29.8891 14.56681919447644
ORBCOMM FM110           
1 41182U 15081D   24144.60861422  .00001989  00000+0  47846-3 0  9993
2 41182  47.0017 324.1868 0002171 195.9244 164.1573 14.56675432447515
ORBCOMM FM112           
1 41184U 15081F   24144.37292994  .00002053  00000+0  49242-3 0  9996
2 41184  46.9978 234.2907 0000814 323.8550  36.2279 14.56685738448805
ORBCOMM FM113           
1 41185U 15081G   24144.35017471  .00002012  00000+0  48337-3 0  9999
2 41185  46.9999 234.6673 0000404 298.5681  61.5163 14.56676437448787
ORBCOMM FM108           
1 41187U 15081J   24144.44154145  .00001556  00000+0  38269-3 0  9996
2 41187  47.0020 145.4424 0003504 310.9165  49.1416 14.56644739449941
ORBCOMM FM117           
1 41188U 15081K   24144.40756681  .00000988  00000+0  25693-3 0  9991
2 41188  46.9996 144.4938 0003790 322.4096  37.6523 14.56610010449989
ORBCOMM FM116           
1 41189U 15081L   24144.39649034  .00002098  00000+0  50254-3 0  9998
2 41189  47.0006 234.3640 0000975  48.7480 311.3489 14.56673845448796
CHUBUSAT-2              
1 41338U 16012B   24144.46308686  .00006812  00000+0  42516-3 0  9992
2 41338  31.0000 189.9167 0011095 347.8071  12.2297 15.08045971453861
CHUBUSAT-3              
1 41339U 16012C   24144.52936051  .00006390  00000+0  40450-3 0  9999
2 41339  31.0062 187.8214 0011088 353.6075   6.4420 15.07499233453856
HORYU-4                 
1 41340U 16012D   24144.31913952  .00014751  00000+0  74567-3 0  9999
2 41340  31.0009 137.6089 0009195  82.5072 277.6613 15.15820905454370
ZIYUAN 3-2 (ZY 3-2)     
1 41556U 16033A   24144.88404343  .00013516  00000+0  60318-3 0  9999
2 41556  97.4565 220.4890 0002375 156.2821 203.8524 15.21498657443302
CARTOSAT-2C             
1 41599U 16040A   24144.45570183  .00009337  00000+0  44408-3 0  9991
2 41599  97.4753 203.7702 0013205 237.4109 122.5851 15.19325615439124
LAPAN-A3                
1 41603U 16040E   24144.83534415  .00005098  00000+0  20622-3 0  9999
2 41603  97.1422 159.6602 0012096 178.8622 181.2646 15.25066533439518
BIROS                   
1 41604U 16040F   24144.80370957  .00016587  00000+0  44712-3 0  9997
2 41604  97.1236 173.9698 0010548 129.1060 231.1126 15.37825653440431
M3MSAT                  
1 41605U 16040G   24144.79348192  .00019085  00000+0  52774-3 0  9995
2 41605  97.1232 171.1909 0010464 145.1601 215.0331 15.37006747440253
GAOFEN-3                
1 41727U 16049A   24144.87455752  .00000206  00000+0  75857-4 0  9992
2 41727  98.4048 152.9003 0001154  82.1875 277.9445 14.42221588409927
QSS (MOZI)              
1 41731U 16051A   24144.84481980  .00013110  00000+0  35999-3 0  9999
2 41731  97.3118  56.8810 0008314 322.2904  37.7757 15.37334443432959
PRATHAM                 
1 41783U 16059A   24144.81395694  .00001896  00000+0  36061-3 0  9996
2 41783  97.8365 165.2949 0034101  97.9276 262.5800 14.64839177408979
ALSAT 1N                
1 41789U 16059G   24144.85222316  .00002348  00000+0  42957-3 0  9990
2 41789  97.8289 171.3646 0028749  76.6884 283.7524 14.66484115409320
CAS-2T & KS-1Q          
1 41847U 16066G   24144.79959844  .00001598  00000+0  24394-3 0  9990
2 41847  98.4610 216.2787 0353306 250.7540 105.5117 14.41163608395988
YUNHAI-1 01             
1 41857U 16068A   24144.88494584  .00000726  00000+0  28132-3 0  9994
2 41857  98.5921 151.1781 0008373  84.5049 275.7090 14.33007792393805
RESOURCESAT-2A          
1 41877U 16074A   24144.79681598  .00000394  00000+0  19902-3 0  9992
2 41877  98.6455 218.7509 0002215  92.1432 267.9999 14.21673288387112
TANSAT                  
1 41898U 16081A   24144.86511545  .00001584  00000+0  35095-3 0  9998
2 41898  98.4692 115.1801 0022080 117.2132 243.1319 14.58433101394601
JILIN-1 03              
1 41914U 17002B   24144.89179511  .00011273  00000+0  53376-3 0  9995
2 41914  97.2170 162.9133 0008861 359.1628   0.9591 15.19460976406472
KAIDUN 1                
1 41915U 17002C   24144.82275794  .00021651  00000+0  77735-3 0  9995
2 41915  97.2027 173.5050 0005138 335.2717  24.8277 15.28676463407150
CARTOSAT-2D             
1 41948U 17008A   24144.88533473  .00009738  00000+0  46582-3 0  9992
2 41948  97.4269 204.5602 0004944   7.1478 352.9826 15.19179141403058
DIDO-2                  
1 42000U 17008BE  24144.69587809  .00189675  00000+0  97610-3 0  9990
2 42000  97.1327 205.5594 0005891 205.4155 154.6825 15.80651391404921
ZHUHAI-1 02 (CAS-4B)    
1 42759U 17034B   24144.85774961  .00020379  00000+0  75000-3 0  9999
2 42759  43.0203   3.9823 0012538 195.1821 164.8656 15.27428300383688
ZHUHAI-1 01 (CAS-4A)    
1 42761U 17034D   24144.86076253  .00022620  00000+0  82885-3 0  9992
2 42761  43.0239   2.3273 0011439 204.7979 155.2325 15.27531932383696
CARTOSAT-2E             
1 42767U 17036C   24144.83597507  .00010429  00000+0  49799-3 0  9998
2 42767  97.4393 204.5736 0005608  72.5739 287.6108 15.19216746383617
AALTO-1                 
1 42775U 17036L   24144.80773577  .00104974  00000+0  11139-2 0  9992
2 42775  97.1054 174.2035 0002909 259.7003 100.3928 15.63739911385296
URSA MAIOR              
1 42776U 17036M   24144.82766717  .00284331  00000+0  14221-2 0  9994
2 42776  97.0993 178.1581 0004698 217.8642 142.2297 15.81042168385541
MAX VALIER SAT          
1 42778U 17036P   24144.82503019  .00281766  00000+0  13914-2 0  9997
2 42778  97.0913 182.2545 0003433 210.1526 149.9545 15.81333062385720
D-SAT                   
1 42794U 17036AF  24144.86229713  .00006232  00000+0  44088-3 0  9995
2 42794  97.4900 127.6458 0108575 229.3846 129.7896 15.00503205377077
IRIDIUM 113             
1 42803U 17039A   24144.83337210  .00000729  00000+0  25310-3 0  9990
2 42803  86.3951 277.3647 0002016  87.3461 272.7966 14.34215586363061
NORSAT 2                
1 42828U 17042D   24144.46189640  .00009580  00000+0  75343-3 0  9997
2 42828  97.3790 331.8687 0013843 122.4848 237.7716 15.00972153373712
TECHNOSAT               
1 42829U 17042E   24144.84426834  .00005922  00000+0  52598-3 0  9992
2 42829  97.3826 327.2829 0013375 151.0518 209.1448 14.96422891373530
FLYING LAPTOP           
1 42831U 17042G   24144.82010356  .00003244  00000+0  30082-3 0  9990
2 42831  97.3850 327.1822 0013415 153.4296 206.7616 14.95025787373493
WNISAT 1R               
1 42835U 17042L   24144.84842106  .00004430  00000+0  40730-3 0  9991
2 42835  97.3828 327.0757 0012999 150.0276 210.1692 14.95198124373528
LEMUR-2-GREENBERG       
1 42837U 17042N   24144.76487131  .00013748  00000+0  99641-3 0  9994
2 42837  97.3624 334.6298 0016779 114.8908 245.4064 15.03943954373970
LEMUR-2-FURIAUS         
1 42840U 17042R   24144.48314284  .00011476  00000+0  85945-3 0  9993
2 42840  97.3632 334.1669 0013785 164.3583 195.8071 15.02787400373879
CORVUS BC2              
1 42846U 17042X   24144.46806847  .00006184  00000+0  53422-3 0  9993
2 42846  97.3739 330.9528 0009748 134.2237 225.9788 14.97520338373741
CORVUS BC1              
1 42847U 17042Y   24144.49840687  .00004808  00000+0  41498-3 0  9998
2 42847  97.3728 331.3819 0008851 135.0203 225.1739 14.97669061373761
VRSS-2                  
1 42954U 17060A   24144.84501064  .00002284  00000+0  31932-3 0  9997
2 42954  97.7550 201.9349 0018994  44.2131 316.0595 14.78416006356878
MOHAMMED VI-A           
1 43005U 17070A   24144.83644942  .00002008  00000+0  29190-3 0  9995
2 43005  97.9567 216.9673 0001237  87.3902 272.7450 14.77036348352621
FENGYUN 3D              
1 43010U 17072A   24144.84481672  .00000294  00000+0  16139-3 0  9997
2 43010  98.9095  99.3589 0002523  63.2546 296.8887 14.19346510337961
CZ-4C R/B               
1 43012U 17072C   24144.78114879  .00000723  00000+0  15531-3 0  9996
2 43012  98.6007 217.6851 0124475 313.6526  45.4403 14.57301896346693
NOAA 20 (JPSS-1)        
1 43013U 17073A   24144.81409213  .00000192  00000+0  11154-3 0  9998
2 43013  98.7058  83.1443 0000420  33.3977 326.7226 14.19587762337440
MIRATA                  
1 43015U 17073C   24144.64434823  .00028925  00000+0  13842-2 0  9995
2 43015  97.5982  29.6835 0171617 345.3812  14.2485 15.06792617352634
MAKERSAT 0              
1 43016U 17073D   24144.64376715  .00020703  00000+0  11812-2 0  9992
2 43016  97.5831  24.3125 0197796   5.5434 354.7912 14.97647324352240
